<?xml version="1.0" encoding="UTF-8"?>
<kml xmlns="http://www.opengis.net/kml/2.2">
  <Document>
    <Placemark>
      <name>Plot A</name>
      <ExtendedData>
        <Data name="parcel_id"><value>A-1</value></Data>
      </ExtendedData>
      <Polygon>
        <outerBoundaryIs>
          <LinearRing>
            <coordinates>
              77.500,12.900,0 77.510,12.900,0 77.510,12.910,0
              77.500,12.910,0 77.500,12.900,0
            </coordinates>
          </LinearRing>
        </outerBoundaryIs>
      </Polygon>
    </Placemark>
    <Placemark>
      <name>Path</name>
      <LineString>
        <coordinates>77.500,12.900,0 77.510,12.910,0</coordinates>
      </LineString>
    </Placemark>
    <Placemark>
      <name>Mark</name>
      <Point><coordinates>77.505,12.905,0</coordinates></Point>
    </Placemark>
  </Document>
</kml>
